[{"OBJECT_NAME":"STARLINK-31423","OBJECT_ID":"2024-049M","EPOCH":"2026-03-09T13:29:41.233056","MEAN_MOTION":15.27583183,"ECCENTRICITY":0.0001346,"INCLINATION":43.0005,"RA_OF_ASC_NODE":144.5037,"ARG_OF_PERICENTER":254.2471,"MEAN_ANOMALY":105.8232,"EPHEMERIS_TYPE":0,"CLASSIFICATION_TYPE":"U","NORAD_CAT_ID":59242,"ELEMENT_SET_NO":999,"REV_AT_EPOCH":11238,"BSTAR":-4.5549e-5,"MEAN_MOTION_DOT":-1.515e-5,"MEAN_MOTION_DDOT":0},{"OBJECT_NAME":"TEVEL2-8","OBJECT_ID":"2025-052AF","EPOCH":"2026-03-09T16:02:08.542752","MEAN_MOTION":15.28392908,"ECCENTRICITY":0.0008031,"INCLINATION":97.4055,"RA_OF_ASC_NODE":324.2923,"ARG_OF_PERICENTER":124.9191,"MEAN_ANOMALY":235.2804,"EPHEMERIS_TYPE":0,"CLASSIFICATION_TYPE":"U","NORAD_CAT_ID":63239,"ELEMENT_SET_NO":999,"REV_AT_EPOCH":5480,"BSTAR":0.00069303947,"MEAN_MOTION_DOT":0.0001913,"MEAN_MOTION_DDOT":0}]
